ONEWEB-0533             
1 55141U 23004B   26064.24120692  .00000050  00000+0  10344-3 0  9998
2 55141  87.9002  11.2966 0001623  80.5894 279.5418 13.12441111154426
ONEWEB-0541             
1 55142U 23004C   26064.18979440 -.00000465  00000+0 -13492-2 0  9993
2 55142  87.8859  41.7295 0002001  82.2950 277.8405 13.11416667152312
ONEWEB-0543             
1 55143U 23004D   26064.21302951  .00000032  00000+0  48101-4 0  9990
2 55143  87.9231 356.1279 0001682  91.4066 268.7259 13.18686764155994
ONEWEB-0544             
1 55144U 23004E   26064.20643018  .00000103  00000+0  22921-3 0  9992
2 55144  87.9241 356.1257 0002018  85.2151 274.9212 13.18686874155992
ONEWEB-0560             
1 55145U 23004F   26064.27570876  .00000141  00000+0  32548-3 0  9999
2 55145  87.9240 356.1020 0001954  84.7861 275.3495 13.18686585156011
ONEWEB-0565             
1 55146U 23004G   26064.19321939  .00001175  00000+0  29479-2 0  9991
2 55146  87.9231 356.1561 0002293  78.4171 281.7218 13.18696597155997
ONEWEB-0567             
1 55147U 23004H   26064.18663680  .00000011  00000+0 -37675-5 0  9992
2 55147  87.9241 356.1315 0002189  84.3407 275.7975 13.18686400155993
ONEWEB-0569             
1 55148U 23004J   26064.25424504 -.00000222  00000+0 -64350-3 0  9994
2 55148  87.9050 340.8843 0002414  97.6255 262.5148 13.13470039156538
ONEWEB-0570             
1 55149U 23004K   26064.25261032  .00000109  00000+0  24381-3 0  9992
2 55149  87.9240 356.1167 0002104  67.3169 292.8185 13.18687058155995
ONEWEB-0571             
1 55150U 23004L   26064.24600124 -.00000875  00000+0 -22533-2 0  9990
2 55150  87.9244 356.1163 0003089  85.3015 274.8469 13.18687901156005
ONEWEB-0572             
1 55151U 23004M   26063.42367082  .00000098  00000+0  21950-3 0  9991
2 55151  87.9139  26.6711 0002074  81.3312 278.8055 13.17650453153683
ONEWEB-0573             
1 55152U 23004N   26064.23942408  .00000123  00000+0  27997-3 0  9999
2 55152  87.9239 356.1205 0002615  74.2465 285.8956 13.18686272155998
ONEWEB-0588             
1 55153U 23004P   26064.23280884  .00000104  00000+0  23037-3 0  9993
2 55153  87.9240 356.1221 0002126  70.4217 289.7145 13.18684679155991
ONEWEB-0598             
1 55154U 23004Q   26064.16776408  .00000207  00000+0  54686-3 0  9996
2 55154  87.8852  41.7550 0002361  93.5460 266.5938 13.11414091152261
ONEWEB-0599             
1 55155U 23004R   26064.14422565  .00000037  00000+0  62098-4 0  9995
2 55155  87.9139  26.5266 0001858  88.5451 271.5894 13.17648000153780
ONEWEB-0614             
1 55156U 23004S   26063.93378683  .00000346  00000+0  94175-3 0  9996
2 55156  87.8850  41.8097 0001862  72.7411 287.3921 13.11414359152178
ONEWEB-0616             
1 55157U 23004T   26063.88267703  .00000023  00000+0  26047-4 0  9997
2 55157  87.9152  26.5785 0001588 112.5001 247.6299 13.17649142153963
