[{"OBJECT_NAME":"ONEWEB-0533","OBJECT_ID":"2023-004B","EPOCH":"2026-03-05T05:47:20.277888","MEAN_MOTION":13.12441111,"ECCENTRICITY":0.00016231,"INCLINATION":87.9002,"RA_OF_ASC_NODE":11.2966,"ARG_OF_PERICENTER":80.5894,"MEAN_ANOMALY":279.5418,"EPHEMERIS_TYPE":0,"CLASSIFICATION_TYPE":"U","NORAD_CAT_ID":55141,"ELEMENT_SET_NO":999,"REV_AT_EPOCH":15442,"BSTAR":0.00010343632,"MEAN_MOTION_DOT":5.0e-7,"MEAN_MOTION_DDOT":0},{"OBJECT_NAME":"ONEWEB-0541","OBJECT_ID":"2023-004C","EPOCH":"2026-03-05T04:33:18.236160","MEAN_MOTION":13.11416667,"ECCENTRICITY":0.00020016,"INCLINATION":87.8859,"RA_OF_ASC_NODE":41.7295,"ARG_OF_PERICENTER":82.295,"MEAN_ANOMALY":277.8405,"EPHEMERIS_TYPE":0,"CLASSIFICATION_TYPE":"U","NORAD_CAT_ID":55142,"ELEMENT_SET_NO":999,"REV_AT_EPOCH":15231,"BSTAR":-0.0013491845,"MEAN_MOTION_DOT":-4.65e-6,"MEAN_MOTION_DDOT":0},{"OBJECT_NAME":"ONEWEB-0543","OBJECT_ID":"2023-004D","EPOCH":"2026-03-05T05:06:45.749664","MEAN_MOTION":13.18686764,"ECCENTRICITY":0.00016827,"INCLINATION":87.9231,"RA_OF_ASC_NODE":356.1279,"ARG_OF_PERICENTER":91.4066,"MEAN_ANOMALY":268.7259,"EPHEMERIS_TYPE":0,"CLASSIFICATION_TYPE":"U","NORAD_CAT_ID":55143,"ELEMENT_SET_NO":999,"REV_AT_EPOCH":15599,"BSTAR":4.810104e-5,"MEAN_MOTION_DOT":3.2e-7,"MEAN_MOTION_DDOT":0},{"OBJECT_NAME":"ONEWEB-0544","OBJECT_ID":"2023-004E","EPOCH":"2026-03-05T04:57:15.567552","MEAN_MOTION":13.18686874,"ECCENTRICITY":0.00020185,"INCLINATION":87.9241,"RA_OF_ASC_NODE":356.1257,"ARG_OF_PERICENTER":85.2151,"MEAN_ANOMALY":274.9212,"EPHEMERIS_TYPE":0,"CLASSIFICATION_TYPE":"U","NORAD_CAT_ID":55144,"ELEMENT_SET_NO":999,"REV_AT_EPOCH":15599,"BSTAR":0.00022920765,"MEAN_MOTION_DOT":1.03e-6,"MEAN_MOTION_DDOT":0},{"OBJECT_NAME":"ONEWEB-0560","OBJECT_ID":"2023-004F","EPOCH":"2026-03-05T06:37:01.236864","MEAN_MOTION":13.18686585,"ECCENTRICITY":0.00019545,"INCLINATION":87.924,"RA_OF_ASC_NODE":356.102,"ARG_OF_PERICENTER":84.7861,"MEAN_ANOMALY":275.3495,"EPHEMERIS_TYPE":0,"CLASSIFICATION_TYPE":"U","NORAD_CAT_ID":55145,"ELEMENT_SET_NO":999,"REV_AT_EPOCH":15601,"BSTAR":0.00032547587,"MEAN_MOTION_DOT":1.41e-6,"MEAN_MOTION_DDOT":0},{"OBJECT_NAME":"ONEWEB-0565","OBJECT_ID":"2023-004G","EPOCH":"2026-03-05T04:38:14.155296","MEAN_MOTION":13.18696597,"ECCENTRICITY":0.00022933,"INCLINATION":87.9231,"RA_OF_ASC_NODE":356.1561,"ARG_OF_PERICENTER":78.4171,"MEAN_ANOMALY":281.7218,"EPHEMERIS_TYPE":0,"CLASSIFICATION_TYPE":"U","NORAD_CAT_ID":55146,"ELEMENT_SET_NO":999,"REV_AT_EPOCH":15599,"BSTAR":0.0029478953,"MEAN_MOTION_DOT":1.175e-5,"MEAN_MOTION_DDOT":0},{"OBJECT_NAME":"ONEWEB-0567","OBJECT_ID":"2023-004H","EPOCH":"2026-03-05T04:28:45.419520","MEAN_MOTION":13.186864,"ECCENTRICITY":0.00021892,"INCLINATION":87.9241,"RA_OF_ASC_NODE":356.1315,"ARG_OF_PERICENTER":84.3407,"MEAN_ANOMALY":275.7975,"EPHEMERIS_TYPE":0,"CLASSIFICATION_TYPE":"U","NORAD_CAT_ID":55147,"ELEMENT_SET_NO":999,"REV_AT_EPOCH":15599,"BSTAR":-3.767462e-6,"MEAN_MOTION_DOT":1.1e-7,"MEAN_MOTION_DDOT":0},{"OBJECT_NAME":"ONEWEB-0569","OBJECT_ID":"2023-004J","EPOCH":"2026-03-05T06:06:06.771456","MEAN_MOTION":13.13470039,"ECCENTRICITY":0.00024148,"INCLINATION":87.905,"RA_OF_ASC_NODE":340.8843,"ARG_OF_PERICENTER":97.6255,"MEAN_ANOMALY":262.5148,"EPHEMERIS_TYPE":0,"CLASSIFICATION_TYPE":"U","NORAD_CAT_ID":55148,"ELEMENT_SET_NO":999,"REV_AT_EPOCH":15653,"BSTAR":-0.00064349584,"MEAN_MOTION_DOT":-2.22e-6,"MEAN_MOTION_DDOT":0},{"OBJECT_NAME":"ONEWEB-0570","OBJECT_ID":"2023-004K","EPOCH":"2026-03-05T06:03:45.531648","MEAN_MOTION":13.18687058,"ECCENTRICITY":0.00021046,"INCLINATION":87.924,"RA_OF_ASC_NODE":356.1167,"ARG_OF_PERICENTER":67.3169,"MEAN_ANOMALY":292.8185,"EPHEMERIS_TYPE":0,"CLASSIFICATION_TYPE":"U","NORAD_CAT_ID":55149,"ELEMENT_SET_NO":999,"REV_AT_EPOCH":15599,"BSTAR":0.0002438067,"MEAN_MOTION_DOT":1.09e-6,"MEAN_MOTION_DDOT":0},{"OBJECT_NAME":"ONEWEB-0571","OBJECT_ID":"2023-004L","EPOCH":"2026-03-05T05:54:14.507136","MEAN_MOTION":13.18687901,"ECCENTRICITY":0.00030894,"INCLINATION":87.9244,"RA_OF_ASC_NODE":356.1163,"ARG_OF_PERICENTER":85.3015,"MEAN_ANOMALY":274.8469,"EPHEMERIS_TYPE":0,"CLASSIFICATION_TYPE":"U","NORAD_CAT_ID":55150,"ELEMENT_SET_NO":999,"REV_AT_EPOCH":15600,"BSTAR":-0.0022533438,"MEAN_MOTION_DOT":-8.75e-6,"MEAN_MOTION_DDOT":0},{"OBJECT_NAME":"ONEWEB-0572","OBJECT_ID":"2023-004M","EPOCH":"2026-03-04T10:10:05.158848","MEAN_MOTION":13.17650453,"ECCENTRICITY":0.0002074,"INCLINATION":87.9139,"RA_OF_ASC_NODE":26.6711,"ARG_OF_PERICENTER":81.3312,"MEAN_ANOMALY":278.8055,"EPHEMERIS_TYPE":0,"CLASSIFICATION_TYPE":"U","NORAD_CAT_ID":55151,"ELEMENT_SET_NO":999,"REV_AT_EPOCH":15368,"BSTAR":0.00021949832,"MEAN_MOTION_DOT":9.8e-7,"MEAN_MOTION_DDOT":0},{"OBJECT_NAME":"ONEWEB-0573","OBJECT_ID":"2023-004N","EPOCH":"2026-03-05T05:44:46.240512","MEAN_MOTION":13.18686272,"ECCENTRICITY":0.00026151,"INCLINATION":87.9239,"RA_OF_ASC_NODE":356.1205,"ARG_OF_PERICENTER":74.2465,"MEAN_ANOMALY":285.8956,"EPHEMERIS_TYPE":0,"CLASSIFICATION_TYPE":"U","NORAD_CAT_ID":55152,"ELEMENT_SET_NO":999,"REV_AT_EPOCH":15599,"BSTAR":0.00027996763,"MEAN_MOTION_DOT":1.23e-6,"MEAN_MOTION_DDOT":0},{"OBJECT_NAME":"ONEWEB-0588","OBJECT_ID":"2023-004P","EPOCH":"2026-03-05T05:35:14.683776","MEAN_MOTION":13.18684679,"ECCENTRICITY":0.0002126,"INCLINATION":87.924,"RA_OF_ASC_NODE":356.1221,"ARG_OF_PERICENTER":70.4217,"MEAN_ANOMALY":289.7145,"EPHEMERIS_TYPE":0,"CLASSIFICATION_TYPE":"U","NORAD_CAT_ID":55153,"ELEMENT_SET_NO":999,"REV_AT_EPOCH":15599,"BSTAR":0.00023037348,"MEAN_MOTION_DOT":1.04e-6,"MEAN_MOTION_DDOT":0},{"OBJECT_NAME":"ONEWEB-0598","OBJECT_ID":"2023-004Q","EPOCH":"2026-03-05T04:01:34.816512","MEAN_MOTION":13.11414091,"ECCENTRICITY":0.00023615,"INCLINATION":87.8852,"RA_OF_ASC_NODE":41.755,"ARG_OF_PERICENTER":93.546,"MEAN_ANOMALY":266.5938,"EPHEMERIS_TYPE":0,"CLASSIFICATION_TYPE":"U","NORAD_CAT_ID":55154,"ELEMENT_SET_NO":999,"REV_AT_EPOCH":15226,"BSTAR":0.00054685519,"MEAN_MOTION_DOT":2.07e-6,"MEAN_MOTION_DDOT":0},{"OBJECT_NAME":"ONEWEB-0599","OBJECT_ID":"2023-004R","EPOCH":"2026-03-05T03:27:41.096160","MEAN_MOTION":13.17648,"ECCENTRICITY":0.00018582,"INCLINATION":87.9139,"RA_OF_ASC_NODE":26.5266,"ARG_OF_PERICENTER":88.5451,"MEAN_ANOMALY":271.5894,"EPHEMERIS_TYPE":0,"CLASSIFICATION_TYPE":"U","NORAD_CAT_ID":55155,"ELEMENT_SET_NO":999,"REV_AT_EPOCH":15378,"BSTAR":6.2097686e-5,"MEAN_MOTION_DOT":3.7e-7,"MEAN_MOTION_DDOT":0},{"OBJECT_NAME":"ONEWEB-0614","OBJECT_ID":"2023-004S","EPOCH":"2026-03-04T22:24:39.182112","MEAN_MOTION":13.11414359,"ECCENTRICITY":0.00018624,"INCLINATION":87.885,"RA_OF_ASC_NODE":41.8097,"ARG_OF_PERICENTER":72.7411,"MEAN_ANOMALY":287.3921,"EPHEMERIS_TYPE":0,"CLASSIFICATION_TYPE":"U","NORAD_CAT_ID":55156,"ELEMENT_SET_NO":999,"REV_AT_EPOCH":15217,"BSTAR":0.00094174643,"MEAN_MOTION_DOT":3.46e-6,"MEAN_MOTION_DDOT":0},{"OBJECT_NAME":"ONEWEB-0616","OBJECT_ID":"2023-004T","EPOCH":"2026-03-04T21:11:03.295392","MEAN_MOTION":13.17649142,"ECCENTRICITY":0.00015887,"INCLINATION":87.9152,"RA_OF_ASC_NODE":26.5785,"ARG_OF_PERICENTER":112.5001,"MEAN_ANOMALY":247.6299,"EPHEMERIS_TYPE":0,"CLASSIFICATION_TYPE":"U","NORAD_CAT_ID":55157,"ELEMENT_SET_NO":999,"REV_AT_EPOCH":15396,"BSTAR":2.6046614e-5,"MEAN_MOTION_DOT":2.3e-7,"MEAN_MOTION_DDOT":0}]
